[{"OBJECT_NAME":"OBJECT V","OBJECT_ID":"2023-085V","EPOCH":"2026-03-09T21:44:00.165408","MEAN_MOTION":15.30745852,"ECCENTRICITY":0.00069081,"INCLINATION":97.4843,"RA_OF_ASC_NODE":179.3833,"ARG_OF_PERICENTER":71.0503,"MEAN_ANOMALY":289.1485,"EPHEMERIS_TYPE":0,"CLASSIFICATION_TYPE":"U","NORAD_CAT_ID":57023,"ELEMENT_SET_NO":999,"REV_AT_EPOCH":15149,"BSTAR":0.00067780507,"MEAN_MOTION_DOT":0.00020109,"MEAN_MOTION_DDOT":0},{"OBJECT_NAME":"STARLINK-35970","OBJECT_ID":"2025-271B","EPOCH":"2026-03-09T12:17:42.848736","MEAN_MOTION":15.30185753,"ECCENTRICITY":0.00013902,"INCLINATION":53.1598,"RA_OF_ASC_NODE":140.4594,"ARG_OF_PERICENTER":68.2586,"MEAN_ANOMALY":291.8563,"EPHEMERIS_TYPE":0,"CLASSIFICATION_TYPE":"U","NORAD_CAT_ID":66618,"ELEMENT_SET_NO":999,"REV_AT_EPOCH":1754,"BSTAR":0.00097886568,"MEAN_MOTION_DOT":0.00028731,"MEAN_MOTION_DDOT":0}]
